{
  "type": "FeatureCollection",
  "features": [
    {
      "type": "Feature",
      "properties": {
        "norad_id": 38867,
        "name": "INTELSAT 23 (IS-23)",
        "group": "intelsat",
        "lat": 0.01812326002357023,
        "lon": 124.0131011823483,
        "alt_km": 35786.61943850693,
        "timestamp": "2025-12-03T06:58:42.909106+00:00",
        "meta_object_name": "INTELSAT 23 (IS-23)",
        "meta_object_id": "2012-057A",
        "meta_epoch": "2025-12-02T16:57:18.193248",
        "meta_mean_motion": 1.00270277,
        "meta_eccentricity": 0.0001767,
        "meta_inclination": 0.0453,
        "meta_ra_of_asc_node": 121.8894,
        "meta_arg_of_pericenter": 92.2124,
        "meta_mean_anomaly": 59.032,
        "meta_ephemeris_type": 0,
        "meta_classification_type": "U",
        "meta_norad_cat_id": 38867,
        "meta_element_set_no": 999,
        "meta_rev_at_epoch": 4798,
        "meta_bstar": 0,
        "meta_mean_motion_dot": -2.64e-06,
        "meta_mean_motion_ddot": 0,
        "tle_line1": "1 38867U 12057A   25336.70646057 -.00000264  00000+0  00000+0 0  9992",
        "tle_line2": "2 38867   0.0453 121.8894 0001767  92.2124  59.0320  1.00270277 47983"
      },
      "geometry": {
        "type": "Point",
        "coordinates": [
          124.0131011823483,
          0.01812326002357023
        ]
      }
    },
    {
      "type": "Feature",
      "properties": {
        "norad_id": 39360,
        "name": "FM-6",
        "group": "intelsat",
        "lat": -0.013984916925158457,
        "lon": 60.84981828775574,
        "alt_km": 35790.95873834664,
        "timestamp": "2025-12-03T06:58:42.909118+00:00",
        "meta_object_name": "FM-6",
        "meta_object_id": "2013-058A",
        "meta_epoch": "2025-12-02T10:37:38.767584",
        "meta_mean_motion": 1.00270976,
        "meta_eccentricity": 0.00029282,
        "meta_inclination": 0.006,
        "meta_ra_of_asc_node": 110.7073,
        "meta_arg_of_pericenter": 62.3341,
        "meta_mean_anomaly": 301.7644,
        "meta_ephemeris_type": 0,
        "meta_classification_type": "U",
        "meta_norad_cat_id": 39360,
        "meta_element_set_no": 999,
        "meta_rev_at_epoch": 4410,
        "meta_bstar": 0,
        "meta_mean_motion_dot": 4e-08,
        "meta_mean_motion_ddot": 0,
        "tle_line1": "1 39360U 13058A   25336.44280981  .00000004  00000+0  00000+0 0  9995",
        "tle_line2": "2 39360   0.0060 110.7073 0002928  62.3341 301.7644  1.00270976 44104"
      },
      "geometry": {
        "type": "Point",
        "coordinates": [
          60.84981828775574,
          -0.013984916925158457
        ]
      }
    },
    {
      "type": "Feature",
      "properties": {
        "norad_id": 40271,
        "name": "INTELSAT 30 (IS-30)",
        "group": "intelsat",
        "lat": 0.03038277266537017,
        "lon": 81.98537068970708,
        "alt_km": 35781.42626546657,
        "timestamp": "2025-12-03T06:58:42.909130+00:00",
        "meta_object_name": "INTELSAT 30 (IS-30)",
        "meta_object_id": "2014-062A",
        "meta_epoch": "2025-12-02T13:19:57.625248",
        "meta_mean_motion": 1.00270094,
        "meta_eccentricity": 0.00012173,
        "meta_inclination": 0.0127,
        "meta_ra_of_asc_node": 359.7494,
        "meta_arg_of_pericenter": 81.4309,
        "meta_mean_anomaly": 95.422,
        "meta_ephemeris_type": 0,
        "meta_classification_type": "U",
        "meta_norad_cat_id": 40271,
        "meta_element_set_no": 999,
        "meta_rev_at_epoch": 481,
        "meta_bstar": 0,
        "meta_mean_motion_dot": -1.3e-06,
        "meta_mean_motion_ddot": 0,
        "tle_line1": "1 40271U 14062A   25336.55552807 -.00000130  00000+0  00000+0 0  9996",
        "tle_line2": "2 40271   0.0127 359.7494 0001217  81.4309  95.4220  1.00270094  4811"
      },
      "geometry": {
        "type": "Point",
        "coordinates": [
          81.98537068970708,
          0.03038277266537017
        ]
      }
    },
    {
      "type": "Feature",
      "properties": {
        "norad_id": 40333,
        "name": "DIRECTV 14",
        "group": "intelsat",
        "lat": 0.028727895705905008,
        "lon": 77.80912393405052,
        "alt_km": 35787.879997731325,
        "timestamp": "2025-12-03T06:58:42.909141+00:00",
        "meta_object_name": "DIRECTV 14",
        "meta_object_id": "2014-078B",
        "meta_epoch": "2025-12-02T08:59:15.226656",
        "meta_mean_motion": 1.00270629,
        "meta_eccentricity": 3.721e-05,
        "meta_inclination": 0.0093,
        "meta_ra_of_asc_node": 318.2125,
        "meta_arg_of_pericenter": 276.9162,
        "meta_mean_anomaly": 231.9434,
        "meta_ephemeris_type": 0,
        "meta_classification_type": "U",
        "meta_norad_cat_id": 40333,
        "meta_element_set_no": 999,
        "meta_rev_at_epoch": 4007,
        "meta_bstar": 0,
        "meta_mean_motion_dot": -1.05e-06,
        "meta_mean_motion_ddot": 0,
        "tle_line1": "1 40333U 14078B   25336.37448179 -.00000105  00000+0  00000+0 0  9990",
        "tle_line2": "2 40333   0.0093 318.2125 0000372 276.9162 231.9434  1.00270629 40078"
      },
      "geometry": {
        "type": "Point",
        "coordinates": [
          77.80912393405052,
          0.028727895705905008
        ]
      }
    },
    {
      "type": "Feature",
      "properties": {
        "norad_id": 40663,
        "name": "DIRECTV 15",
        "group": "intelsat",
        "lat": 0.019067682938046806,
        "lon": 74.16070415629804,
        "alt_km": 35787.70800806946,
        "timestamp": "2025-12-03T06:58:42.909153+00:00",
        "meta_object_name": "DIRECTV 15",
        "meta_object_id": "2015-026A",
        "meta_epoch": "2025-12-02T15:00:23.376384",
        "meta_mean_motion": 1.00270418,
        "meta_eccentricity": 2.99e-05,
        "meta_inclination": 0.0433,
        "meta_ra_of_asc_node": 100.4968,
        "meta_arg_of_pericenter": 166.0499,
        "meta_mean_anomaly": 287.4051,
        "meta_ephemeris_type": 0,
        "meta_classification_type": "U",
        "meta_norad_cat_id": 40663,
        "meta_element_set_no": 999,
        "meta_rev_at_epoch": 3849,
        "meta_bstar": 0,
        "meta_mean_motion_dot": -8.2e-07,
        "meta_mean_motion_ddot": 0,
        "tle_line1": "1 40663U 15026A   25336.62527056 -.00000082  00000+0  00000+0 0  9994",
        "tle_line2": "2 40663   0.0433 100.4968 0000299 166.0499 287.4051  1.00270418 38498"
      },
      "geometry": {
        "type": "Point",
        "coordinates": [
          74.16070415629804,
          0.019067682938046806
        ]
      }
    },
    {
      "type": "Feature",
      "properties": {
        "norad_id": 40664,
        "name": "SKY MEXICO-1",
        "group": "intelsat",
        "lat": 0.025332899329623904,
        "lon": 98.26974139811114,
        "alt_km": 35797.417964846834,
        "timestamp": "2025-12-03T06:58:42.909164+00:00",
        "meta_object_name": "SKY MEXICO-1",
        "meta_object_id": "2015-026B",
        "meta_epoch": "2025-12-02T13:24:27.194976",
        "meta_mean_motion": 1.00270806,
        "meta_eccentricity": 0.00026754,
        "meta_inclination": 0.0155,
        "meta_ra_of_asc_node": 319.1317,
        "meta_arg_of_pericenter": 305.5311,
        "meta_mean_anomaly": 289.356,
        "meta_ephemeris_type": 0,
        "meta_classification_type": "U",
        "meta_norad_cat_id": 40664,
        "meta_element_set_no": 999,
        "meta_rev_at_epoch": 3848,
        "meta_bstar": 0,
        "meta_mean_motion_dot": -2.14e-06,
        "meta_mean_motion_ddot": 0,
        "tle_line1": "1 40664U 15026B   25336.55864809 -.00000214  00000+0  00000+0 0  9994",
        "tle_line2": "2 40664   0.0155 319.1317 0002675 305.5311 289.3560  1.00270806 38486"
      },
      "geometry": {
        "type": "Point",
        "coordinates": [
          98.26974139811114,
          0.025332899329623904
        ]
      }
    },
    {
      "type": "Feature",
      "properties": {
        "norad_id": 40874,
        "name": "INTELSAT 34 (IS-34)",
        "group": "intelsat",
        "lat": 0.0030000109396876025,
        "lon": 121.53153559848535,
        "alt_km": 35784.76733089198,
        "timestamp": "2025-12-03T06:58:42.909176+00:00",
        "meta_object_name": "INTELSAT 34 (IS-34)",
        "meta_object_id": "2015-039A",
        "meta_epoch": "2025-12-02T19:49:38.654112",
        "meta_mean_motion": 1.00270458,
        "meta_eccentricity": 5.74e-05,
        "meta_inclination": 0.0148,
        "meta_ra_of_asc_node": 299.8564,
        "meta_arg_of_pericenter": 225.27,
        "meta_mean_anomaly": 148.7124,
        "meta_ephemeris_type": 0,
        "meta_classification_type": "U",
        "meta_norad_cat_id": 40874,
        "meta_element_set_no": 999,
        "meta_rev_at_epoch": 3765,
        "meta_bstar": 0,
        "meta_mean_motion_dot": -2.65e-06,
        "meta_mean_motion_ddot": 0,
        "tle_line1": "1 40874U 15039A   25336.82614183 -.00000265  00000+0  00000+0 0  9995",
        "tle_line2": "2 40874   0.0148 299.8564 0000574 225.2700 148.7124  1.00270458 37650"
      },
      "geometry": {
        "type": "Point",
        "coordinates": [
          121.53153559848535,
          0.0030000109396876025
        ]
      }
    }
  ]
}